[{"OBJECT_NAME":"STARLINK-32451","OBJECT_ID":"2024-202N","EPOCH":"2026-03-08T13:12:35.429184","MEAN_MOTION":15.27578742,"ECCENTRICITY":0.00017915,"INCLINATION":43.0033,"RA_OF_ASC_NODE":244.4046,"ARG_OF_PERICENTER":276.2147,"MEAN_ANOMALY":83.85,"EPHEMERIS_TYPE":0,"CLASSIFICATION_TYPE":"U","NORAD_CAT_ID":61857,"ELEMENT_SET_NO":999,"REV_AT_EPOCH":7516,"BSTAR":5.3176636e-5,"MEAN_MOTION_DOT":1.201e-5,"MEAN_MOTION_DDOT":0},{"OBJECT_NAME":"GEOSCAN 2 (RS92S2)","OBJECT_ID":"2025-155Q","EPOCH":"2026-03-09T23:01:48.939744","MEAN_MOTION":15.28709337,"ECCENTRICITY":0.00085277,"INCLINATION":97.4463,"RA_OF_ASC_NODE":37.5259,"ARG_OF_PERICENTER":140.9505,"MEAN_ANOMALY":219.2352,"EPHEMERIS_TYPE":0,"CLASSIFICATION_TYPE":"U","NORAD_CAT_ID":64890,"ELEMENT_SET_NO":999,"REV_AT_EPOCH":6561,"BSTAR":0.00051551761,"MEAN_MOTION_DOT":0.00014341,"MEAN_MOTION_DDOT":0}]
